IRIDIUM 112             
1 41925U 17003J   24132.79613438  .00000544  00000+0  18733-3 0  9992
2 41925  86.3992  48.5765 0002499  85.3333 274.8149 14.34220700383422
IRIDIUM 111             
1 41926U 17003K   24132.85321631  .00000600  00000+0  20714-3 0  9996
2 41926  86.3995  48.6065 0002429  77.2980 282.8488 14.34223353383412
IRIDIUM 113             
1 42803U 17039A   24132.83317390  .00001047  00000+0  36686-3 0  9996
2 42803  86.3936 282.3848 0002285  87.4495 272.6962 14.34226078361341
IRIDIUM 123             
1 42804U 17039B   24132.94442645  .00000403  00000+0  13671-3 0  9995
2 42804  86.3935 313.8586 0002233  83.5820 276.5630 14.34220048360123
IRIDIUM 120             
1 42805U 17039C   24132.89660741  .00000374  00000+0  12641-3 0  9992
2 42805  86.3925 282.2401 0002062  92.6610 267.4822 14.34220277361347
IRIDIUM 115             
1 42806U 17039D   24132.94346256  .00001746  00000+0  51281-3 0  9998
2 42806  86.4461 282.2395 0002268  87.4090 272.7371 14.43288162363749
IRIDIUM 118             
1 42807U 17039E   24133.53429246  .00001292  00000+0  45435-3 0  9996
2 42807  86.3933 313.6127 0002374  94.2884 265.8583 14.34218442360211
IRIDIUM 117             
1 42808U 17039F   24132.92540058  .00000414  00000+0  14069-3 0  9998
2 42808  86.3932 313.8325 0002091  85.2790 274.8644 14.34220162360147
